[
    {
        "Altitude(m)": 604969.0890704594,
        "Argument of Periapsis(deg)": 0.0,
        "Eccentricity": 0.0,
        "Inclination(deg)": 60.0,
        "Latitude(deg)": -0.09260569150785683,
        "Longitude(deg)": 24.97752778366805,
        "Mean Anomaly(deg)": 0.0,
        "RAAN(deg)": 125.00000000000001,
        "Satellite Name": "Test1 550",
        "Satellite Number": 550,
        "Semi-Major Axis(m)": 6980739.136638005,
        "Time(s)": 0
    },
    {
        "Altitude(m)": 604900.0289542598,
        "Argument of Periapsis(deg)": 0.00010418945913296404,
        "Eccentricity": 0.0,
        "Inclination(deg)": 60.0,
        "Latitude(deg)": 0.44782072687650215,
        "Longitude(deg)": 25.24564977205574,
        "Mean Anomaly(deg)": 0.6201061454618275,
        "RAAN(deg)": 124.99957995086027,
        "Satellite Name": "Test1 550",
        "Satellite Number": 550,
        "Semi-Major Axis(m)": 6980739.136638005,
        "Time(s)": 10
    }
]